[Satellite]
VERSION=1.1
NAME=GSAT0104 (PRN E20)
NICKNAME=GSAT0104 (PRN E20)
TLE1=1 38858U 12055B   15052.75021139  .00000030  00000-0  00000+0 0  9998
TLE2=2 38858  55.0211 215.5250 0001728 163.4395 196.5130  1.70473770 14643
